HAWK-5A                 
1 52757U 22057AB  26173.71948544  .00015127  00000+0  25690-3 0  9993
2 52757  97.6614 332.9250 0005196  61.6929 298.4846 15.51560363227208
HAWK-6B                 
1 55324U 23011A   26173.69140698  .00003480  00000+0  15314-3 0  9999
2 55324  40.5000 319.9675 0001507  46.7855 313.3080 15.22975104188683
HAWK-6C                 
1 55326U 23011C   26173.75633322  .00003331  00000+0  14697-3 0  9997
2 55326  40.4985 316.4266 0002304  33.7949 326.3007 15.22970720188705
HAWK-6A                 
1 55327U 23011D   26173.69080562  .00003479  00000+0  15311-3 0  9990
2 55327  40.4998 318.4341 0002008  25.6910 334.3999 15.22973058188699
HAWK-7A                 
1 56191U 23054P   26173.74454727  .00004191  00000+0  15890-3 0  9995
2 56191  97.2697  60.9401 0003913  44.7155 315.4399 15.27408305177875
HAWK-7B                 
1 56193U 23054R   26173.74447065  .00004158  00000+0  15768-3 0  9991
2 56193  97.2724  59.2062 0003429  58.2922 301.8652 15.27406290177878
HAWK-7C                 
1 56200U 23054Y   26173.74435492  .00004168  00000+0  15805-3 0  9994
2 56200  97.2700  59.9730 0003329  49.4383 310.7146 15.27407445177872
