OBJECT_NAME,OBJECT_ID,EPOCH,MEAN_MOTION,ECCENTRICITY,INCLINATION,RA_OF_ASC_NODE,ARG_OF_PERICENTER,MEAN_ANOMALY,EPHEMERIS_TYPE,CLASSIFICATION_TYPE,NORAD_CAT_ID,ELEMENT_SET_NO,REV_AT_EPOCH,BSTAR,MEAN_MOTION_DOT,MEAN_MOTION_DDOT
HAWK-5A,2022-057AB,2026-06-22T17:16:03.542016,15.51560363,.00051969,97.6614,332.9250,61.6929,298.4846,0,U,52757,999,22720,.25690007E-3,.15127E-3,0
HAWK-6B,2023-011A,2026-06-22T16:35:37.563072,15.22975104,.00015072,40.5000,319.9675,46.7855,313.3080,0,U,55324,999,18868,.15313523E-3,.348E-4,0
HAWK-6C,2023-011C,2026-06-22T18:09:07.190208,15.22970720,.00023041,40.4985,316.4266,33.7949,326.3007,0,U,55326,999,18870,.14696502E-3,.3331E-4,0
HAWK-6A,2023-011D,2026-06-22T16:34:45.605568,15.22973058,.0002008,40.4998,318.4341,25.6910,334.3999,0,U,55327,999,18869,.15310767E-3,.3479E-4,0
HAWK-7A,2023-054P,2026-06-22T17:52:08.884128,15.27408305,.00039132,97.2697,60.9401,44.7155,315.4399,0,U,56191,999,17787,.1589013E-3,.4191E-4,0
HAWK-7B,2023-054R,2026-06-22T17:52:02.264160,15.27406290,.00034292,97.2724,59.2062,58.2922,301.8652,0,U,56193,999,17787,.15768471E-3,.4158E-4,0
HAWK-7C,2023-054Y,2026-06-22T17:51:52.265088,15.27407445,.00033293,97.2700,59.9730,49.4383,310.7146,0,U,56200,999,17787,.15804872E-3,.4168E-4,0
